[{"OBJECT_NAME":"SL-8 R/B","OBJECT_ID":"1979-089B","EPOCH":"2026-04-07T06:02:57.400800","MEAN_MOTION":14.42371357,"ECCENTRICITY":0.00164167,"INCLINATION":74.0706,"RA_OF_ASC_NODE":38.1685,"ARG_OF_PERICENTER":206.7239,"MEAN_ANOMALY":153.3074,"EPHEMERIS_TYPE":0,"CLASSIFICATION_TYPE":"U","NORAD_CAT_ID":11574,"ELEMENT_SET_NO":999,"REV_AT_EPOCH":44022,"BSTAR":0.00012080072,"MEAN_MOTION_DOT":3.73e-6,"MEAN_MOTION_DDOT":0},{"OBJECT_NAME":"SL-14 R/B","OBJECT_ID":"1980-005B","EPOCH":"2026-04-07T06:01:07.775616","MEAN_MOTION":14.90966084,"ECCENTRICITY":0.00171286,"INCLINATION":82.5108,"RA_OF_ASC_NODE":280.1351,"ARG_OF_PERICENTER":70.2174,"MEAN_ANOMALY":290.089,"EPHEMERIS_TYPE":0,"CLASSIFICATION_TYPE":"U","NORAD_CAT_ID":11672,"ELEMENT_SET_NO":999,"REV_AT_EPOCH":48074,"BSTAR":6.4345408e-5,"MEAN_MOTION_DOT":6.62e-6,"MEAN_MOTION_DDOT":0},{"OBJECT_NAME":"SL-8 R/B","OBJECT_ID":"1981-003B","EPOCH":"2026-04-06T22:28:27.377472","MEAN_MOTION":15.12316874,"ECCENTRICITY":0.0259124,"INCLINATION":82.9359,"RA_OF_ASC_NODE":263.8761,"ARG_OF_PERICENTER":80.5553,"MEAN_ANOMALY":282.4866,"EPHEMERIS_TYPE":0,"CLASSIFICATION_TYPE":"U","NORAD_CAT_ID":12139,"ELEMENT_SET_NO":999,"REV_AT_EPOCH":31894,"BSTAR":0.00059421,"MEAN_MOTION_DOT":0.00023912,"MEAN_MOTION_DDOT":0},{"OBJECT_NAME":"SL-3 R/B","OBJECT_ID":"1981-046B","EPOCH":"2026-04-07T04:48:35.119008","MEAN_MOTION":15.42753941,"ECCENTRICITY":0.00180352,"INCLINATION":81.2297,"RA_OF_ASC_NODE":255.4828,"ARG_OF_PERICENTER":280.5536,"MEAN_ANOMALY":79.3675,"EPHEMERIS_TYPE":0,"CLASSIFICATION_TYPE":"U","NORAD_CAT_ID":12465,"ELEMENT_SET_NO":999,"REV_AT_EPOCH":44282,"BSTAR":0.00032388152,"MEAN_MOTION_DOT":0.00014275,"MEAN_MOTION_DDOT":0},{"OBJECT_NAME":"SL-3 R/B","OBJECT_ID":"1981-103B","EPOCH":"2026-04-07T04:21:57.190752","MEAN_MOTION":15.21733279,"ECCENTRICITY":0.00132554,"INCLINATION":81.1602,"RA_OF_ASC_NODE":180.0074,"ARG_OF_PERICENTER":185.5882,"MEAN_ANOMALY":174.5204,"EPHEMERIS_TYPE":0,"CLASSIFICATION_TYPE":"U","NORAD_CAT_ID":12904,"ELEMENT_SET_NO":999,"REV_AT_EPOCH":97756,"BSTAR":0.00025735864,"MEAN_MOTION_DOT":5.867e-5,"MEAN_MOTION_DDOT":0},{"OBJECT_NAME":"SL-3 R/B","OBJECT_ID":"1982-013B","EPOCH":"2026-04-07T04:17:29.429376","MEAN_MOTION":15.22282435,"ECCENTRICITY":0.00235583,"INCLINATION":81.1718,"RA_OF_ASC_NODE":127.3721,"ARG_OF_PERICENTER":84.7047,"MEAN_ANOMALY":275.6872,"EPHEMERIS_TYPE":0,"CLASSIFICATION_TYPE":"U","NORAD_CAT_ID":13068,"ELEMENT_SET_NO":999,"REV_AT_EPOCH":40868,"BSTAR":0.00017194882,"MEAN_MOTION_DOT":4.014e-5,"MEAN_MOTION_DDOT":0},{"OBJECT_NAME":"SL-3 R/B","OBJECT_ID":"1982-039B","EPOCH":"2026-04-07T05:08:23.995104","MEAN_MOTION":15.10254652,"ECCENTRICITY":0.00280572,"INCLINATION":81.1546,"RA_OF_ASC_NODE":183.0681,"ARG_OF_PERICENTER":228.9877,"MEAN_ANOMALY":130.8922,"EPHEMERIS_TYPE":0,"CLASSIFICATION_TYPE":"U","NORAD_CAT_ID":13154,"ELEMENT_SET_NO":999,"REV_AT_EPOCH":38594,"BSTAR":0.00016203342,"MEAN_MOTION_DOT":2.697e-5,"MEAN_MOTION_DDOT":0},{"OBJECT_NAME":"SL-3 R/B","OBJECT_ID":"1982-079B","EPOCH":"2026-04-07T05:01:16.495680","MEAN_MOTION":15.25187674,"ECCENTRICITY":0.00253331,"INCLINATION":81.1465,"RA_OF_ASC_NODE":159.3993,"ARG_OF_PERICENTER":71.3125,"MEAN_ANOMALY":289.0855,"EPHEMERIS_TYPE":0,"CLASSIFICATION_TYPE":"U","NORAD_CAT_ID":13403,"ELEMENT_SET_NO":999,"REV_AT_EPOCH":38204,"BSTAR":0.00019921351,"MEAN_MOTION_DOT":5.07e-5,"MEAN_MOTION_DDOT":0},{"OBJECT_NAME":"SL-14 R/B","OBJECT_ID":"1982-092B","EPOCH":"2026-04-07T02:43:39.470592","MEAN_MOTION":14.86693746,"ECCENTRICITY":0.0019682,"INCLINATION":82.5648,"RA_OF_ASC_NODE":114.8062,"ARG_OF_PERICENTER":202.7211,"MEAN_ANOMALY":217.3396,"EPHEMERIS_TYPE":0,"CLASSIFICATION_TYPE":"U","NORAD_CAT_ID":13553,"ELEMENT_SET_NO":999,"REV_AT_EPOCH":33315,"BSTAR":5.261711e-5,"MEAN_MOTION_DOT":4.94e-6,"MEAN_MOTION_DDOT":0},{"OBJECT_NAME":"SL-3 R/B","OBJECT_ID":"1983-010B","EPOCH":"2026-04-07T02:15:57.384288","MEAN_MOTION":15.4734763,"ECCENTRICITY":0.00152656,"INCLINATION":81.1028,"RA_OF_ASC_NODE":327.3991,"ARG_OF_PERICENTER":311.3549,"MEAN_ANOMALY":48.6383,"EPHEMERIS_TYPE":0,"CLASSIFICATION_TYPE":"U","NORAD_CAT_ID":13819,"ELEMENT_SET_NO":999,"REV_AT_EPOCH":36233,"BSTAR":0.00030088995,"MEAN_MOTION_DOT":0.0001548,"MEAN_MOTION_DDOT":0},{"OBJECT_NAME":"SL-3 R/B","OBJECT_ID":"1983-075B","EPOCH":"2026-04-07T05:38:29.629824","MEAN_MOTION":15.39143711,"ECCENTRICITY":0.00230124,"INCLINATION":97.6141,"RA_OF_ASC_NODE":102.9088,"ARG_OF_PERICENTER":124.9857,"MEAN_ANOMALY":235.3553,"EPHEMERIS_TYPE":0,"CLASSIFICATION_TYPE":"U","NORAD_CAT_ID":14208,"ELEMENT_SET_NO":999,"REV_AT_EPOCH":33454,"BSTAR":0.0003370162,"MEAN_MOTION_DOT":0.00013112,"MEAN_MOTION_DDOT":0},{"OBJECT_NAME":"COSMOS 1536","OBJECT_ID":"1984-013A","EPOCH":"2026-04-07T05:10:15.938400","MEAN_MOTION":15.24254685,"ECCENTRICITY":0.00144875,"INCLINATION":82.5429,"RA_OF_ASC_NODE":79.4779,"ARG_OF_PERICENTER":174.104,"MEAN_ANOMALY":186.0371,"EPHEMERIS_TYPE":0,"CLASSIFICATION_TYPE":"U","NORAD_CAT_ID":14699,"ELEMENT_SET_NO":999,"REV_AT_EPOCH":27696,"BSTAR":0.00033640613,"MEAN_MOTION_DOT":8.265e-5,"MEAN_MOTION_DDOT":0},{"OBJECT_NAME":"SL-14 R/B","OBJECT_ID":"1984-027B","EPOCH":"2026-04-06T20:09:28.900512","MEAN_MOTION":14.86009567,"ECCENTRICITY":0.00167292,"INCLINATION":82.5431,"RA_OF_ASC_NODE":218.6113,"ARG_OF_PERICENTER":237.6646,"MEAN_ANOMALY":122.2951,"EPHEMERIS_TYPE":0,"CLASSIFICATION_TYPE":"U","NORAD_CAT_ID":14820,"ELEMENT_SET_NO":999,"REV_AT_EPOCH":25181,"BSTAR":7.2896929e-5,"MEAN_MOTION_DOT":6.62e-6,"MEAN_MOTION_DDOT":0},{"OBJECT_NAME":"SL-8 R/B","OBJECT_ID":"1985-006B","EPOCH":"2026-04-07T05:56:07.354176","MEAN_MOTION":14.37804621,"ECCENTRICITY":0.00173731,"INCLINATION":74.0463,"RA_OF_ASC_NODE":208.5984,"ARG_OF_PERICENTER":117.6407,"MEAN_ANOMALY":263.8965,"EPHEMERIS_TYPE":0,"CLASSIFICATION_TYPE":"U","NORAD_CAT_ID":15483,"ELEMENT_SET_NO":999,"REV_AT_EPOCH":15813,"BSTAR":0.00011355724,"MEAN_MOTION_DOT":3.17e-6,"MEAN_MOTION_DDOT":0},{"OBJECT_NAME":"SL-12 R/B(2)","OBJECT_ID":"1985-042D","EPOCH":"2026-04-07T04:36:52.227360","MEAN_MOTION":14.21991292,"ECCENTRICITY":0.00329039,"INCLINATION":71.1103,"RA_OF_ASC_NODE":27.5093,"ARG_OF_PERICENTER":80.816,"MEAN_ANOMALY":22.0204,"EPHEMERIS_TYPE":0,"CLASSIFICATION_TYPE":"U","NORAD_CAT_ID":15772,"ELEMENT_SET_NO":999,"REV_AT_EPOCH":11844,"BSTAR":5.9067287e-5,"MEAN_MOTION_DOT":8.4e-7,"MEAN_MOTION_DDOT":0},{"OBJECT_NAME":"SL-14 R/B","OBJECT_ID":"1985-069B","EPOCH":"2026-04-07T03:39:52.277760","MEAN_MOTION":14.86465776,"ECCENTRICITY":0.00203365,"INCLINATION":82.5301,"RA_OF_ASC_NODE":358.1768,"ARG_OF_PERICENTER":97.457,"MEAN_ANOMALY":262.8958,"EPHEMERIS_TYPE":0,"CLASSIFICATION_TYPE":"U","NORAD_CAT_ID":15945,"ELEMENT_SET_NO":999,"REV_AT_EPOCH":17706,"BSTAR":6.090377e-5,"MEAN_MOTION_DOT":5.65e-6,"MEAN_MOTION_DDOT":0},{"OBJECT_NAME":"SL-16 R/B","OBJECT_ID":"1985-097B","EPOCH":"2026-04-07T05:19:50.741184","MEAN_MOTION":14.16602355,"ECCENTRICITY":0.0009055,"INCLINATION":71.001,"RA_OF_ASC_NODE":80.4812,"ARG_OF_PERICENTER":225.2397,"MEAN_ANOMALY":147.2873,"EPHEMERIS_TYPE":0,"CLASSIFICATION_TYPE":"U","NORAD_CAT_ID":16182,"ELEMENT_SET_NO":999,"REV_AT_EPOCH":9127,"BSTAR":1.1024787e-5,"MEAN_MOTION_DOT":-2.6e-7,"MEAN_MOTION_DDOT":0}]
