SL-8 R/B                
1 11574U 79089B   26097.25205325  .00000373  00000+0  12080-3 0  9995
2 11574  74.0706  38.1685 0016416 206.7239 153.3074 14.42371357440224
SL-14 R/B               
1 11672U 80005B   26097.25078444  .00000662  00000+0  64345-4 0  9997
2 11672  82.5108 280.1351 0017128  70.2174 290.0890 14.90966084480741
SL-8 R/B                
1 12139U 81003B   26096.93642798  .00023912  00000+0  59421-3 0  9999
2 12139  82.9359 263.8761 0259124  80.5553 282.4866 15.12316874318945
SL-3 R/B                
1 12465U 81046B   26097.20040647  .00014275  00000+0  32388-3 0  9999
2 12465  81.2297 255.4828 0018035 280.5536  79.3675 15.42753941442827
SL-3 R/B                
1 12904U 81103B   26097.18191193  .00005867  00000+0  25736-3 0  9997
2 12904  81.1602 180.0074 0013255 185.5882 174.5204 15.21733279977566
SL-3 R/B                
1 13068U 82013B   26097.17881284  .00004014  00000+0  17195-3 0  9999
2 13068  81.1718 127.3721 0023558  84.7047 275.6872 15.22282435408689
SL-3 R/B                
1 13154U 82039B   26097.21416661  .00002697  00000+0  16203-3 0  9995
2 13154  81.1546 183.0681 0028057 228.9877 130.8922 15.10254652385948
SL-3 R/B                
1 13403U 82079B   26097.20921870  .00005070  00000+0  19921-3 0  9996
2 13403  81.1465 159.3993 0025333  71.3125 289.0855 15.25187674382042
SL-14 R/B               
1 13553U 82092B   26097.11365128  .00000494  00000+0  52617-4 0  9990
2 13553  82.5648 114.8062 0019682 202.7211 217.3396 14.86693746333155
SL-3 R/B                
1 13819U 83010B   26097.09441417  .00015480  00000+0  30089-3 0  9998
2 13819  81.1028 327.3991 0015265 311.3549  48.6383 15.47347630362332
SL-3 R/B                
1 14208U 83075B   26097.23506516  .00013112  00000+0  33702-3 0  9995
2 14208  97.6141 102.9088 0023012 124.9857 235.3553 15.39143711334547
COSMOS 1536             
1 14699U 84013A   26097.21546225  .00008265  00000+0  33641-3 0  9996
2 14699  82.5429  79.4779 0014487 174.1040 186.0371 15.24254685276963
SL-14 R/B               
1 14820U 84027B   26096.83991783  .00000662  00000+0  72897-4 0  9997
2 14820  82.5431 218.6113 0016729 237.6646 122.2951 14.86009567251816
SL-8 R/B                
1 15483U 85006B   26097.24730734  .00000317  00000+0  11356-3 0  9993
2 15483  74.0463 208.5984 0017373 117.6407 263.8965 14.37804621158133
SL-12 R/B(2)            
1 15772U 85042D   26097.19227115  .00000084  00000+0  59067-4 0  9995
2 15772  71.1103  27.5093 0032903  80.8160  22.0204 14.21991292118441
SL-14 R/B               
1 15945U 85069B   26097.15268840  .00000565  00000+0  60904-4 0  9998
2 15945  82.5301 358.1768 0020336  97.4570 262.8958 14.86465776177064
SL-16 R/B               
1 16182U 85097B   26097.22211506 -.00000026  00000+0  11025-4 0  9991
2 16182  71.0010  80.4812 0009055 225.2397 147.2873 14.16602355 91275
